accountId,type,name,address,email,phone,website,lat,lng
"7a24beaf-2d63-e511-bfd3-0050569a6f1c","findacpa","Zima Business & Taxation Consulting","PO Box 105, MERRYLANDS NSW 2160, AUS","mary.mattar@zimabtc.com.au","01414340292","http://www.zimabtc.com.au","-33.83602","150.98668"
"17643040-d406-ec11-812a-0050569a1c9a","findacpa","NDC ACCOUNTING","U 1007, 228 Pitt St, MERRYLANDS NSW 2160, AUS","rajibglobal395@gmail.com","+61414234344",,"-33.83488","150.99255"
"94472643-0411-e311-a818-0050569a6f1c","findacpa","Advalue Business and Taxation Services Pty Ltd","U 14  27 Good St, WESTMEAD NSW 2145, AUS","ymcai@hotmail.com","+61431800685",,"-33.81525","150.99281"
"ae651965-75dd-ec11-8126-0050569a458f","findacpa","Bal Accounting and Financial Services","U 25  9 Campbell St, PARRAMATTA NSW 2150, AUS","bal.accounting@yahoo.com","+61421458529",,"-33.81801","150.99777"
"2fe35447-4f28-eb11-8441-0003ff6f8a77","findacpa","Tax Thru Technology Pty Ltd","25 Austral Ave, WESTMEAD NSW 2145, AUS","ed@taxthrutechnology.com.au","+61431663217",,"-33.81066","150.98378"
"9250332f-1988-e011-87e1-005056b30007","findacpa","Total Finance (Accounting) Pty Ltd","45 High St, PARRAMATTA NSW 2150, AUS","hollis.ho@totalfinance.com.au","+61296339235","http://www.totalfinance.com.au","-33.82448","151.0063"
"6f807d5f-1788-e011-87e1-005056b30007","findacpa","Merhi & Co","L 2  22 Hunter St, PARRAMATTA NSW 2150, AUS","phillip@merhico.com.au","+61296892777",,"-33.81523","151.00042"
"8a92a9f1-2969-ed11-813b-0050569a1c9a","findacpa","SydWest Tax","U 15  9-11 Wigram St, HARRIS PARK NSW 2150, AUS","khuldoon@gmail.com","+61451595582",,"-33.82624","151.00872"
"9566724c-2a88-e011-87e1-005056b30007","findacpa","Vicaretti & Associates","L 1  95 Macquarie St, PARRAMATTA NSW 2150, AUS","anthony@vicarettiandassociates.com.au","+61298069800",,"-33.81553","151.00374"
"85c17545-9282-e911-8107-0050569a1c9a","findacpa","SR Mithani & Co","L 15  60 Station St E, PARRAMATTA NSW 2150, AUS","srmithani@srmithani.com.au","+61424576532","http://www.srmithani.com.au","-33.81856","151.00726"
"5d71b166-2088-e011-82c3-005056b3003f","findacpa","Andy Wu & Co","U 8  2 O'Connell St, PARRAMATTA NSW 2150, AUS","andywuco88@gmail.com","+61408261366",,"-33.81209","151.00172"
"484656b5-3988-e011-972f-005056b3003f","findacpa","LCI Partners Pty Ltd","L 3  239 Church St, PARRAMATTA NSW 2150, AUS","anthony@lciadvisory.com","+61298916044","http://www.lcipartners.com","-33.81331","151.00325"
"cf12c8e1-b521-e311-a591-0050569a6f1c","findacpa","Smart Tax Advisors","U 6  96 Wigram St, HARRIS PARK NSW 2150, AUS","jignesh@staxadvisors.com.au","+61298911096","http://www.staxadvisors.com.au","-33.82065","151.00896"
"11c7d079-2388-e011-972f-005056b3003f","findacpa","Maxtax","Shop 17  272 Church St, PARRAMATTA NSW 2150, AUS","clients@maxtax.com.au","+61296873522","http://www.mayatx.com.au","-33.81328","151.00402"
"3f15795e-4b8d-ec11-812f-0050569a1c9a","findacpa","HP ACCOUNTANTS & ADVISERS","6 Albion St, HARRIS PARK NSW 2150, AUS","jafri@smsffs.com.au","+61296871577","http://www,.smsffs.com.au","-33.82214","151.01016"
"13e14e12-1c88-e011-87e1-005056b30007","findacpa","Makari & Co Pty Ltd","Suite 405, L 4  55 Phillip St, PARRAMATTA NSW 2150, AUS","bakous@makari.com.au","+61296879333","http://makari.com.au/","-33.81275","151.0051"
"184431b7-56a2-e011-8bb9-005056b30007","findacpa","Ray Accounting Group","PO Box 1208, PARRAMATTA NSW 2124, AUS","vijaydantu@gmail.com","+61278068748","http://www.vijaydantu.com","-33.81396","151.00688"
"aa7043a4-c712-e911-9461-0003ff49bcfb","findacpa","MaC Insolvency","L 7  91 Phillip St, PARRAMATTA NSW 2150, AUS","info@macinsolvency.com","+61280029580","http://www.macinsolvency.com","-33.81317","151.00628"
"26d31b56-a1e3-eb11-8128-0050569a1c9a","findacpa","Core Tax Strategies & Core Bookkeeping Strategies","L 7  91 Phillip St, PARRAMATTA NSW 2150, AUS","kushan@core-biz.com.au","+61288931252","http://www.core-biz.com.au","-33.81317","151.00628"
"79e84041-5542-ef11-a316-000d3ae07cae","findacpa","Trace Accounting Tax & Advisory","L 1  93 George St, PARRAMATTA NSW 2150, AUS","admin@traceaccounting.com.au","61 2 7252 7151",,"-33.81517","151.00836"
"89b54a0d-a998-ea11-8113-0050569a1c9a","findacpa","Heads-up Advisory","Se 2, L 5  91 George St, PARRAMATTA NSW 2150, AUS","ravi@huadv.com.au","+61291388800","http://www.headsupadvisory.com.au","-33.81496","151.0082"
"44716df3-1c6f-ea11-8109-0050569a458f","findacpa","D Soral Finance Pty Ltd","38 Alfred St, GRANVILLE NSW 2142, AUS","dsoral@gmail.com","+61423300462",,"-33.82927","151.01495"
"52156a8e-fe25-ea11-8454-0003ffc30c8d","findacpa","Optimal Taxation Services Pty Ltd","SUITE 4, L 1  370-376 Church St, PARRAMATTA NSW 2150, AUS","hyang799@yahoo.com.au","+61406399568",,"-33.80911","151.00561"
"c4854b36-d5fc-e311-804e-0050569a6f1b","findacpa","Carnegie Accounting Services Pty Ltd","L 7  34 Charles St, PARRAMATTA NSW 2150, AUS","jon@carnegie.com.au","+61296871966",,"-33.81392","151.00988"
"30bbe75c-2488-e011-972f-005056b3003f","findacpa","Jack Emmanuel","U 6  4 Alan St, FAIRFIELD NSW 2165, AUS","jack@jackemmanuelco.com.au","+61297557007",,"-33.86953","150.95837"
"f0d8d06e-49ef-e611-80e9-0050569a458f","findacpa","SMR Accounting Services","PO Box 206, PENDLE HILL NSW 2145, AUS","rmprasad@mail.com","+61414593525",,"-33.80409","150.95591"
"d7f3fdaa-ab0e-e311-aa6b-0050569a6ed2","findacpa","Wealthpro Accountants & Independent Super Auditors","PO Box 200, PENDLE HILL NSW 2145, AUS","mei@wealthproaccountants.com.au","+61406611828","http://www.wealthproaccountants.com.au/","-33.80409","150.95591"
"8955b053-1fb3-e911-8106-0050569a458f","findacpa","Simpleffi Pty Ltd","U 92  23-25 North Rocks Rd, NORTH ROCKS NSW 2151, AUS","admin@simpleffi.com.au","+61280883040","http://www.simpleffi.com.au","-33.79053","150.9992"
"b7186699-8658-ec11-8120-0050569a458f","findacpa","V R Management Pty Ltd","9 Daley St, PENDLE HILL NSW 2145, AUS","pankaj2v@gmail.com","043399878",,"-33.80759","150.95254"
"1f45c8ec-1c88-e011-82c3-005056b3003f","findacpa","R Prasad & Co","172 The Horsley Dr, CARRAMAR NSW 2163, AUS","rampras9@bigpond.net.au","+61297256661",,"-33.8785","150.9657"
"7dc81487-1588-e011-87e1-005056b30007","findacpa","Pomponio & Associates","Se 16  4 Station St, FAIRFIELD NSW 2165, AUS","pomponioandassoc@bigpond.com.au","+61297264499","http://","-33.86878","150.95376"