accountId,type,name,address,email,phone,website,lat,lng
"adb203fc-1c88-e011-87e1-005056b30007","findacpa","Taxellence & Co Pty Ltd","Se 5  5 King St, ROCKDALE NSW 2216, AUS","peter@taxellence.com.au","+61295563188",,"-33.95258","151.13844"
"cf4d86b7-1388-e011-87e1-005056b30007","findacpa","Peter Konnaris","13 Station St, KOGARAH NSW 2217, AUS","kontax@bigpond.com","0295887188","http://","-33.9626","151.13166"
"10c1b3cf-2aee-ed11-8133-0050569a458f","findacpa","FLOE Accounting and Consulting Services","U 1  2a Grey St, CARLTON NSW 2218, AUS","flrnccho@gmail.com","+61402246309","http://www.floeaccountingandandconsulting.com.au","-33.96811","151.12075"
"6bc55280-3288-e011-87e1-005056b30007","findacpa","ROBESQUE Pty Ltd","46 Hollywood St, MONTEREY NSW 2217, AUS","robesque@optusnet.com.au","+61295932333",,"-33.97781","151.14626"
"5b035de7-9402-e511-8f70-0050569a6f1c","findacpa","Velvet Accounting Pty Ltd","PO Box 421, RAMSGATE NSW 2217, AUS","rstrange@velvetaccounting.com.au","+61418455618","http://www.velvetaccounting.com.au","-33.9826","151.13997"
"a996fb47-e700-e111-9922-005056b30007","findacpa","Pavden Pty Ltd","149 Woids Ave, CARLTON NSW 2218, AUS","pavle@atlasplus.com.au",,,"-33.97829","151.11765"
"1819e04f-1591-e711-80f1-0050569a458f","findacpa","K & K Accounting & Business Services","Se 152  10 Park Rd, HURSTVILLE NSW 2220, AUS","keshab@knkaccounting.com.au","0423322983","https://www.knkaccounting.com.au","-33.96659","151.10627"
"dd345556-3680-e411-91d3-0050569a6ed2","findacpa","Frank Tax Consulting","Frank Tax Consulting, 67-69 Kimberley Rd, HURSTVILLE NSW 2220, AUS","frank@franktaxconsulting.com.au","+61295858759","http://www.franktaxconsulting.com.au","-33.9586","151.10298"
"c5b77d2e-0080-ed11-a81c-002248990531","findacpa","AAL Consulting Pty Ltd","SUITE 22, L 3  2 Cross St, HURSTVILLE NSW 2220, AUS","admin@aal-consulting.com","+61295861822","https://aalconsultants.com/","-33.9656","151.10416"
"ee393b79-2b88-e011-87e1-005056b30007","findacpa","ATB Accounting","Se 7  10-12 Woodville St, HURSTVILLE NSW 2220, AUS","admin@atbs.net.au","+61295851042","http://www.atbs.net.au","-33.96513","151.10301"
"ab9e199e-1a88-e011-82c3-005056b3003f","findacpa","MBA Accountants & Business Advisors","Se 4  10-12 Woodville St, HURSTVILLE NSW 2220, AUS","info@mbaaccountants.com.au","+61295802622","http://www.mbaaccountants.com.au","-33.96513","151.10301"
"0097086a-22cb-e111-83ea-005056b3003f","findacpa","St George Taxcare Pty Ltd","Unit 9B, Se 9  10-12 Woodville St, HURSTVILLE NSW 2220, AUS","info@sgtax.com.au","+61289570671","http://www.sgtax.com.au","-33.96514","151.10301"
"12e572ae-d92c-ed11-8137-0050569a1c9a","findacpa","Rider Accountants & Advisors","15 Marana Rd, EARLWOOD NSW 2206, AUS","steven@rideraccountants.com.au","+61289578454","http://www.rideraccountants.com.au","-33.92449","151.11025"
"0a4560a3-3188-e011-87e1-005056b30007","findacpa","Omnilink Tax and Business Advisors Pty Ltd","Se 26  33 MacMahon St, HURSTVILLE NSW 2220, AUS","omnilink@optusnet.com.au","+61280847663",,"-33.96547","151.10209"
"37c44d3f-ea8c-e911-80e7-0003ff6ff51e","findacpa","Applied Accounting and Taxation","Suite 103, 32 Ormonde Pde, HURSTVILLE NSW 2220, AUS","pdhakal920@gmail.com","+61401031136","http://www.appliedaccounting.com.au","-33.96789","151.10219"
"85484613-1988-e011-87e1-005056b30007","findacpa","N Kalaitzis & Co Pty Ltd","Suite 4E, L 4  34 MacMahon St, HURSTVILLE NSW 2220, AUS","nkalaitzis@bigpond.com","+61295704600",,"-33.96549","151.10133"
"fc1cdf27-1a88-e011-87e1-005056b30007","findacpa","Simon Wu & Co Pty  Ltd","PO Box 572, SANS SOUCI NSW 2219, AUS","simon@simonwu.com.au","+61292110228","http://www.simonwu.com.au","-33.99599","151.13126"
"1cffeae3-4e5d-ec11-a3ee-0003ffc304c5","findacpa","IPM Tax & Accounting Pty Ltd","5 Crinan St, HURLSTONE PARK NSW 2193, AUS","preetig@ipmsolutions.com.au","+61423629377","http://www.ipmsolutions.com.au/","-33.90959","151.13219"
"5c1e3615-fd7c-e311-8aaf-0050569a6ed2","findacpa","TY Francis Accounting & Taxation","Shop 1  475 Marrickville Rd, DULWICH HILL NSW 2203, AUS","helen@tyfrancis.com.au","+61433527758","http://www.tyfrancis.com.au","-33.90398","151.14342"
"03a37769-7340-e911-8104-0050569a458f","findacpa","Howell and Co Accounting Pty Ltd","13 Malakoff St, MARRICKVILLE NSW 2204, AUS","shawn@howellandco.com.au","+61417212287",,"-33.90693","151.15707"